{
    "satellites": [
        {
            "name": "starlink372",
            "title": "Starlink-372 (G10-44)",
            "tle": [
                "1 68527C 26068V   26099.88868056 -.02194300  00000+0 -10503-1 0   996",
                "2 68527  53.1602 352.8117 0000602  94.0110 290.7444 15.83157667    17"
            ],
            "stdMag": 5,
            "noradId": "68527",
            "intDes": null,
            "tleUrl": "http://celestrak.org/NORAD/elements/supplemental/sup-gp.php?FILE=starlink&FORMAT=tle",
            "launchDate": "2026-03-30T21:15:00.000Z",
            "active": true,
            "batch": [
                {
                    "noradId": "68527",
                    "tle": [
                        "1 68527C 26068V   26099.88868056 -.02194300  00000+0 -10503-1 0   996",
                        "2 68527  53.1602 352.8117 0000602  94.0110 290.7444 15.83157667    17"
                    ]
                },
                {
                    "noradId": "68520",
                    "tle": [
                        "1 68520C 26068N   26099.93590278 -.01172300  00000+0 -58882-2 0   991",
                        "2 68520  53.1602 352.6335 0000960  91.3310 174.1696 15.81603227    19"
                    ]
                },
                {
                    "noradId": "68514",
                    "tle": [
                        "1 68514C 26068G   26099.94909722 -.00072854  00000+0 -36843-3 0   999",
                        "2 68514  53.1603 352.6194 0000433  93.9457 221.4419 15.80905969    17"
                    ]
                },
                {
                    "noradId": "68512",
                    "tle": [
                        "1 68512C 26068E   26099.95604167 -.00047431  00000+0 -23985-3 0   999",
                        "2 68512  53.1602 352.6024 0000360  91.4675 254.9120 15.80894763    19"
                    ]
                }
            ]
        },
        {
            "name": "starlink371",
            "title": "Starlink-371 (G17-17)",
            "tle": [
                "1 68400C 26063W   26099.91784722 -.00013310  00000+0 -69523-4 0   990",
                "2 68400  97.2836 241.2167 0001391  91.4374   0.1866 15.80857672    11"
            ],
            "stdMag": 5,
            "noradId": "68400",
            "intDes": null,
            "tleUrl": "http://celestrak.org/NORAD/elements/supplemental/sup-gp.php?FILE=starlink&FORMAT=tle",
            "launchDate": "2026-03-26T23:03:19.000Z",
            "active": true,
            "batch": [
                {
                    "noradId": "68400",
                    "tle": [
                        "1 68400C 26063W   26099.91784722 -.00013310  00000+0 -69523-4 0   990",
                        "2 68400  97.2836 241.2167 0001391  91.4374   0.1866 15.80857672    11"
                    ]
                },
                {
                    "noradId": "68393",
                    "tle": [
                        "1 68393C 26063P   26099.96576389 -.00045884  00000+0 -23955-3 0   993",
                        "2 68393  97.2829 241.2565 0001261 101.6248 232.5566 15.80884623    10"
                    ]
                },
                {
                    "noradId": "68390",
                    "tle": [
                        "1 68390C 26063L   26099.95673611 -.01911800  00000+0 -49759-2 0   995",
                        "2 68390  97.2746 241.4292 0001152  56.8846 286.8693 15.95975427    10"
                    ]
                },
                {
                    "noradId": "68386",
                    "tle": [
                        "1 68386C 26063G   26099.97618056 -.00067338  00000+0 -35184-3 0   999",
                        "2 68386  97.2830 241.2546 0001138 101.8511 261.6877 15.80878199    10"
                    ]
                },
                {
                    "noradId": "68381",
                    "tle": [
                        "1 68381C 26063B   26099.92409722 -.00022029  00000+0 -11506-3 0   997",
                        "2 68381  97.2832 241.1907 0001396  97.8245 308.1352 15.80862466    16"
                    ]
                }
            ]
        }
    ],
    "config": {}
}